IRIDIUM 106             
1 41917U 17003A   25221.50928416  .00000046  00000+0  91907-5 0  9990
2 41917  86.3959 218.7176 0002185 101.3897 258.7544 14.34218062448531
IRIDIUM 103             
1 41918U 17003B   25221.49659796  .00000115  00000+0  33855-4 0  9995
2 41918  86.3958 218.6235 0001753  83.0896 277.0499 14.34218565448554
IRIDIUM 109             
1 41919U 17003C   25221.50294219  .00000025  00000+0  20195-5 0  9997
2 41919  86.3959 218.6752 0002239  85.0054 275.1397 14.34217847448523
IRIDIUM 102             
1 41920U 17003D   25221.47122958  .00000023  00000+0  10240-5 0  9993
2 41920  86.3959 218.6187 0002387  87.2136 272.9333 14.34217782448608
IRIDIUM 105             
1 41921U 17003E   25221.30242987  .00000087  00000+0  24043-4 0  9996
2 41921  86.4015 187.1791 0002117  85.1664 274.9773 14.34216940450437
IRIDIUM 104             
1 41922U 17003F   25221.48391368  .00000025  00000+0  19060-5 0  9990
2 41922  86.3959 218.6512 0002204  79.3877 280.7567 14.34217965448591
IRIDIUM 114             
1 41923U 17003G   25221.49025635  .00000061  00000+0  14866-4 0  9991
2 41923  86.3958 218.6328 0002047  89.0351 271.1080 14.34218171448578
IRIDIUM 108             
1 41924U 17003H   25221.44877851  .00000087  00000+0  23860-4 0  9994
2 41924  86.4011 187.0163 0002396  89.8223 270.3247 14.34218261450422
